NORAD_CAT_ID,OBJECT_NAME,OBJECT_TYPE,EPOCH,MEAN_MOTION,ECCENTRICITY,INCLINATION,RA_OF_ASC_NODE,ARG_OF_PERICENTER,MEAN_ANOMALY,BSTAR,MEAN_MOTION_DOT,MEAN_MOTION_DDOT,TLE_LINE0,TLE_LINE1,TLE_LINE2,SEMIMAJOR_AXIS,PERIOD,APOGEE,PERIGEE,DECAYED
50813.0,STARLINK-3349,PAYLOAD,2022-10-20 11:43:02,15.08840078,0.0001963,53.2163,308.6605,44.527,315.588,1.1523e-05,-1.05e-06,0.0,0 STARLINK-3349,1 50813U 22001L   22293.48822248 -.00000105  00000-0  11523-4 0  9991,2 50813  53.2163 308.6605 0001963  44.5270 315.5880 15.08840078 45176,6917.88,95.438,541.1030000000002,538.387,0.0
50813.0,STARLINK-3349,PAYLOAD,2022-10-20 18:04:35,15.0883296,0.0001918,53.2162,307.4704,44.6628,315.4518,7.4288e-05,8.94e-06,0.0,0 STARLINK-3349,1 50813U 22001L   22293.75318663  .00000894  00000-0  74288-4 0  9993,2 50813  53.2162 307.4704 0001918  44.6628 315.4518 15.08832960 45213,6917.901999999999,95.438,541.094,538.44,0.0
50813.0,STARLINK-3349,PAYLOAD,2022-10-21 09:58:25,15.08844919,0.0002015,53.2163,304.4963,45.5641,314.5515,0.00023065,3.385e-05,0.0,0 STARLINK-3349,1 50813U 22001L   22294.41557850  .00003385  00000-0  23065-3 0  9994,2 50813  53.2163 304.4963 0002015  45.5641 314.5515 15.08844919 45317,6917.865,95.437,541.124,538.336,0.0
50813.0,STARLINK-3349,PAYLOAD,2022-10-21 17:55:21,15.08846704,0.0002085999999999,53.2154,303.0098,46.3782,313.7383,0.00018267,2.621e-05,0.0,0 STARLINK-3349,1 50813U 22001L   22294.74677800  .00002621  00000-0  18267-3 0  9998,2 50813  53.2154 303.0098 0002086  46.3782 313.7383 15.08846704 44119,6917.86,95.437,541.168,538.2819999999998,0.0
50813.0,STARLINK-3349,PAYLOAD,2022-10-22 08:13:49,15.08851334,0.0002013,53.2151,300.3334,48.9158,311.2008,0.00017035,2.425e-05,0.0,0 STARLINK-3349,1 50813U 22001L   22295.34293428  .00002425  00000-0  17035-3 0  9999,2 50813  53.2151 300.3334 0002013  48.9158 311.2008 15.08851334 44206,6917.846,95.437,541.1030000000002,538.318,0.0
50813.0,STARLINK-3349,PAYLOAD,2022-10-22 17:46:08,15.08843296,0.0002078,53.2148,298.5492,48.5073,311.6097,0.00014444,2.012e-05,0.0,0 STARLINK-3349,1 50813U 22001L   22295.74037781  .00002012  00000-0  14444-3 0  9994,2 50813  53.2148 298.5492 0002078  48.5073 311.6097 15.08843296 44264,6917.87,95.437,541.173,538.298,0.0
50813.0,STARLINK-3349,PAYLOAD,2022-10-23 03:18:26,15.08854161,0.0002108,53.2151,296.7638,49.5705,310.5471,0.00019301,2.786e-05,0.0,0 STARLINK-3349,1 50813U 22001L   22296.13781021  .00002786  00000-0  19301-3 0  9996,2 50813  53.2151 296.7638 0002108  49.5705 310.5471 15.08854161 45579,6917.837,95.437,541.16,538.244,0.0
50813.0,STARLINK-3349,PAYLOAD,2022-10-23 08:04:36,15.08853352,0.0001969,53.2163,295.8721,47.5691,312.5467,0.00010898,1.447e-05,0.0,0 STARLINK-3349,1 50813U 22001L   22296.33652956  .00001447  00000-0  10898-3 0  9997,2 50813  53.2163 295.8721 0001969  47.5691 312.5467 15.08853352 44354,6917.84,95.437,541.067,538.342,0.0
50813.0,STARLINK-3349,PAYLOAD,2022-10-23 17:36:55,15.08848456,0.0001854,53.2152,294.0887,46.0652,314.0493,5.342e-05,5.62e-06,0.0,0 STARLINK-3349,1 50813U 22001L   22296.73397032  .00000562  00000-0  53420-4 0  9998,2 50813  53.2152 294.0887 0001854  46.0652 314.0493 15.08848456 45660,6917.855,95.437,541.002,538.437,0.0
50813.0,STARLINK-3349,PAYLOAD,2022-10-24 07:55:22,15.08849559,0.0001911,53.2151,291.4125,41.4316,318.6821,8.1872e-05,1.015e-05,0.0,0 STARLINK-3349,1 50813U 22001L   22297.33012658  .00001015  00000-0  81872-4 0  9999,2 50813  53.2151 291.4125 0001911  41.4316 318.6821 15.08849559 44507,6917.851,95.437,541.038,538.394,0.0
50813.0,STARLINK-3349,PAYLOAD,2022-10-25 03:00:02,15.08820876,0.0001805,53.2152,287.8428,47.3848,312.7296,-0.00021961,-3.78e-05,0.0,0 STARLINK-3349,1 50813U 22001L   22298.12502773 -.00003780  00000-0 -21961-3 0  9994,2 50813  53.2152 287.8428 0001805  47.3848 312.7296 15.08820876 45873,6917.939,95.439,541.053,538.555,0.0
50813.0,STARLINK-3349,PAYLOAD,2022-10-25 09:21:34,15.08829879,0.0001933,53.215,286.6529,46.338,313.7773,-6.6631e-05,-1.348e-05,0.0,0 STARLINK-3349,1 50813U 22001L   22298.38998572 -.00001348  00000-0 -66631-4 0  9990,2 50813  53.2150 286.6529 0001933  46.3380 313.7773 15.08829879 45910,6917.911,95.438,541.114,538.439,0.0
50813.0,STARLINK-3349,PAYLOAD,2022-10-26 02:50:49,15.08842093,0.0001894,53.2153,283.3824,43.4866,316.6276,0.00030193,4.521e-05,0.0,0 STARLINK-3349,1 50813U 22001L   22299.11862391  .00004521  00000-0  30193-3 0  9998,2 50813  53.2153 283.3824 0001894  43.4866 316.6276 15.08842093 46024,6917.874,95.437,541.049,538.429,0.0
50813.0,STARLINK-3349,PAYLOAD,2022-10-26 07:36:58,15.08846388,0.0001895,53.2153,282.4905,43.2472,316.8669,0.00040577,6.177e-05,0.0,0 STARLINK-3349,1 50813U 22001L   22299.31734338  .00006177  00000-0  40577-3 0  9995,2 50813  53.2153 282.4905 0001895  43.2472 316.8669 15.08846388 44809,6917.861,95.437,541.0369999999998,538.415,0.0
50813.0,STARLINK-3349,PAYLOAD,2022-10-26 15:33:54,15.08835787,0.0001894,53.2151,281.0025,39.4638,320.6492,0.00021509,3.136e-05,0.0,0 STARLINK-3349,1 50813U 22001L   22299.64854987  .00003136  00000-0  21509-3 0  9990,2 50813  53.2151 281.0025 0001894  39.4638 320.6492 15.08835787 44858,6917.893,95.438,541.069,538.448,0.0
50813.0,STARLINK-3349,PAYLOAD,2022-10-27 02:41:36,15.08850008,0.0001837,53.2154,278.9213,47.3946,312.7201,0.0003956999999999,6.017e-05,0.0,0 STARLINK-3349,1 50813U 22001L   22300.11222513  .00006017  00000-0  39570-3 0  9997,2 50813  53.2154 278.9213 0001837  47.3946 312.7201 15.08850008 46172,6917.85,95.437,540.986,538.444,0.0
50813.0,STARLINK-3349,PAYLOAD,2022-10-27 10:38:31,15.08842697,0.0002011,53.2152,277.4352,38.2894,321.8241,9.6241e-05,1.244e-05,0.0,0 STARLINK-3349,1 50813U 22001L   22300.44342587  .00001244  00000-0  96241-4 0  9993,2 50813  53.2152 277.4352 0002011  38.2894 321.8241 15.08842697 44970,6917.871999999999,95.437,541.128,538.346,0.0
50813.0,STARLINK-3349,PAYLOAD,2022-10-27 15:24:41,15.08841952,0.0001972,53.2152,276.5429,39.9926,320.1211,8.350299999999999e-05,1.041e-05,0.0,0 STARLINK-3349,1 50813U 22001L   22300.64214651  .00001041  00000-0  83503-4 0  9997,2 50813  53.2152 276.5429 0001972  39.9926 320.1211 15.08841952 45001,6917.874,95.437,541.104,538.375,0.0
50813.0,STARLINK-3349,PAYLOAD,2022-10-28 05:43:09,15.08854967,0.000199,53.2152,273.8665,40.1327,319.9812,0.00036381,5.509e-05,0.0,0 STARLINK-3349,1 50813U 22001L   22301.23830050  .00005509  00000-0  36381-3 0  9994,2 50813  53.2152 273.8665 0001990  40.1327 319.9812 15.08854967 45094,6917.835,95.437,541.076,538.323,0.0
50813.0,STARLINK-3349,PAYLOAD,2022-10-28 15:15:27,15.08863834,0.000184,53.2154,272.0823,41.719,318.3942,0.00058233,8.998e-05,0.0,0 STARLINK-3349,1 50813U 22001L   22301.63573506  .00008998  00000-0  58233-3 0  9993,2 50813  53.2154 272.0823 0001840  41.7190 318.3942 15.08863834 45159,6917.808000000001,95.436,540.945,538.4,0.0
50813.0,STARLINK-3349,PAYLOAD,2022-10-29 05:33:55,15.08858381,0.0001835,53.215,269.4054,45.1437,314.9704,0.00034938,5.279e-05,0.0,0 STARLINK-3349,1 50813U 22001L   22302.23189130  .00005279  00000-0  34938-3 0  9991,2 50813  53.2150 269.4054 0001835  45.1437 314.9704 15.08858381 46494,6917.824000000001,95.436,540.9590000000002,538.42,0.0
50813.0,STARLINK-3349,PAYLOAD,2022-10-29 07:09:18,15.08850202,0.000184,53.2147,269.1086,39.0452,321.0673,0.00014388,2.003e-05,0.0,0 STARLINK-3349,1 50813U 22001L   22302.29813378  .00002003  00000-0  14388-3 0  9994,2 50813  53.2147 269.1086 0001840  39.0452 321.0673 15.08850202 45258,6917.849,95.437,540.987,538.441,0.0
50813.0,STARLINK-3349,PAYLOAD,2022-10-29 21:27:46,15.08854973,0.000198,53.215,266.4321,47.348,312.7679,0.0004902,7.525e-05,0.0,0 STARLINK-3349,1 50813U 22001L   22302.89429037  .00007525  00000-0  49020-3 0  9990,2 50813  53.2150 266.4321 0001980  47.3480 312.7679 15.08854973 45344,6917.835,95.437,541.069,538.33,0.0
50813.0,STARLINK-3349,PAYLOAD,2022-10-30 05:24:42,15.08845315,0.0001937,53.215,264.9456,46.0498,314.0654,4.0352e-05,3.54e-06,0.0,0 STARLINK-3349,1 50813U 22001L   22303.22549234  .00000354  00000-0  40352-4 0  9993,2 50813  53.2150 264.9456 0001937  46.0498 314.0654 15.08845315 45396,6917.864000000001,95.437,541.069,538.389,0.0
50813.0,STARLINK-3349,PAYLOAD,2022-10-30 14:57:01,15.08838572,0.0001999,53.215,263.1613,48.1634,311.9529,2.6453e-06,-2.46e-06,0.0,0 STARLINK-3349,1 50813U 22001L   22303.62293532 -.00000246  00000-0  26453-5 0  9992,2 50813  53.2150 263.1613 0001999  48.1634 311.9529 15.08838572 45456,6917.885,95.438,541.133,538.367,0.0
50813.0,STARLINK-3349,PAYLOAD,2022-10-31 03:40:06,15.08838553,0.0001916,53.2149,260.7817,49.8605,310.2555,6.291100000000001e-05,7.13e-06,0.0,0 STARLINK-3349,1 50813U 22001L   22304.15285696  .00000713  00000-0  62911-4 0  9999,2 50813  53.2149 260.7817 0001916  49.8605 310.2555 15.08838553 45537,6917.885,95.438,541.075,538.424,0.0
50813.0,STARLINK-3349,PAYLOAD,2022-10-31 14:47:49,15.08831477,0.0001872,53.2154,258.6999,49.029,311.0864,3.4036e-05,2.53e-06,0.0,0 STARLINK-3349,1 50813U 22001L   22304.61654386  .00000253  00000-0  34036-4 0  9992,2 50813  53.2154 258.6999 0001872  49.0290 311.0864 15.08831477 46859,6917.906,95.438,541.066,538.476,0.0
50813.0,STARLINK-3349,PAYLOAD,2022-10-31 21:09:22,15.08826827,0.0001618,53.2152,257.5098,52.1016,308.0122,-2.6981e-05,-7.17e-06,0.0,0 STARLINK-3349,1 50813U 22001L   22304.88150731 -.00000717  00000-0 -26981-4 0  9993,2 50813  53.2152 257.5098 0001618  52.1016 308.0122 15.08826827 45646,6917.920999999999,95.438,540.905,538.6659999999998,0.0
50813.0,STARLINK-3349,PAYLOAD,2022-11-01 08:17:03,15.08837136,0.0001954,53.2164,255.4295,48.6355,311.4804,4.0703e-05,3.6000000000000007e-06,0.0,0 STARLINK-3349,1 50813U 22001L   22305.34518502  .00000360  00000-0  40703-4 0  9999,2 50813  53.2164 255.4295 0001954  48.6355 311.4804 15.08837136 45712,6917.889,95.438,541.106,538.4019999999998,0.0
